{
    "links": {
        "self": "http://www.neowsapp.com/rest/v1/neo/3976544?api_key=iIulBulltgU6a56xZRHN4H3l9WmuAYTsLGpBGhQ2"
    },
    "id": "3976544",
    "neo_reference_id": "3976544",
    "name": "(2020 AA2)",
    "designation": "2020 AA2",
    "nasa_jpl_url": "http://ssd.jpl.nasa.gov/sbdb.cgi?sstr=3976544",
    "absolute_magnitude_h": 27.0,
    "estimated_diameter": {
        "kilometers": {
            "estimated_diameter_min": 0.0105816886,
            "estimated_diameter_max": 0.023661375
        },
        "meters": {
            "estimated_diameter_min": 10.5816885933,
            "estimated_diameter_max": 23.6613750114
        },
        "miles": {
            "estimated_diameter_min": 0.0065751544,
            "estimated_diameter_max": 0.0147024923
        },
        "feet": {
            "estimated_diameter_min": 34.7168272045,
            "estimated_diameter_max": 77.6291855923
        }
    },
    "is_potentially_hazardous_asteroid": false,
    "close_approach_data": [
        {
            "close_approach_date": "2019-12-31",
            "close_approach_date_full": "2019-Dec-31 01:32",
            "epoch_date_close_approach": 1577755920000,
            "relative_velocity": {
                "kilometers_per_second": "9.714685182",
                "kilometers_per_hour": "34972.8666552779",
                "miles_per_hour": "21730.7792836642"
            },
            "miss_distance": {
                "astronomical": "0.0109871677",
                "lunar": "4.2740082353",
                "kilometers": "1643656.885252799",
                "miles": "1021321.0292106662"
            },
            "orbiting_body": "Earth"
        },
        {
            "close_approach_date": "2137-09-29",
            "close_approach_date_full": "2137-Sep-29 10:58",
            "epoch_date_close_approach": 5293508280000,
            "relative_velocity": {
                "kilometers_per_second": "17.784455187",
                "kilometers_per_hour": "64024.0386731132",
                "miles_per_hour": "39782.0478077464"
            },
            "miss_distance": {
                "astronomical": "0.2897913636",
                "lunar": "112.7288404404",
                "kilometers": "43352170.738955532",
                "miles": "26937789.7752770616"
            },
            "orbiting_body": "Earth"
        },
        {
            "close_approach_date": "2151-12-31",
            "close_approach_date_full": "2151-Dec-31 01:14",
            "epoch_date_close_approach": 5743271640000,
            "relative_velocity": {
                "kilometers_per_second": "9.4026503813",
                "kilometers_per_hour": "33849.5413725147",
                "miles_per_hour": "21032.7886378272"
            },
            "miss_distance": {
                "astronomical": "0.0086507915",
                "lunar": "3.3651578935",
                "kilometers": "1294139.982214105",
                "miles": "804141.296420449"
            },
            "orbiting_body": "Earth"
        },
        {
            "close_approach_date": "2151-12-31",
            "close_approach_date_full": "2151-Dec-31 05:29",
            "epoch_date_close_approach": 5743286940000,
            "relative_velocity": {
                "kilometers_per_second": "10.2758387889",
                "kilometers_per_hour": "36993.0196400674",
                "miles_per_hour": "22986.0237869074"
            },
            "miss_distance": {
                "astronomical": "0.0084063264",
                "lunar": "3.2700609696",
                "kilometers": "1257568.523964768",
                "miles": "781416.8460110784"
            },
            "orbiting_body": "Moon"
        }
    ],
    "orbital_data": {
        "orbit_id": "3",
        "orbit_determination_date": "2020-01-07 06:11:37",
        "first_observation_date": "2020-01-05",
        "last_observation_date": "2020-01-06",
        "data_arc_in_days": 1,
        "observations_used": 22,
        "orbit_uncertainty": "8",
        "minimum_orbit_intersection": ".0100666",
        "jupiter_tisserand_invariant": "3.660",
        "epoch_osculation": "2458854.5",
        "eccentricity": ".5305111209246635",
        "semi_major_axis": "1.989970041458407",
        "inclination": "4.788501749640343",
        "ascending_node_longitude": "104.4055149323316",
        "orbital_period": "1025.340788766787",
        "perihelion_distance": ".9342688041578084",
        "perihelion_argument": "321.1895988103575",
        "aphelion_distance": "3.045671278759005",
        "perihelion_time": "2458823.190239599927",
        "mean_anomaly": "10.99294387535574",
        "mean_motion": ".3511027786507784",
        "equinox": "J2000",
        "orbit_class": {
            "orbit_class_type": "APO",
            "orbit_class_description": "Near-Earth asteroid orbits which cross the Earth’s orbit similar to that of 1862 Apollo",
            "orbit_class_range": "a (semi-major axis) > 1.0 AU; q (perihelion) < 1.017 AU"
        }
    },
    "is_sentry_object": false
}